{
  "type": "FeatureCollection",
  "features": [
    {
      "type": "Feature",
      "properties": {
        "norad_id": 35980,
        "name": "COSMOS 2251 DEB",
        "group": "cosmos-2251-debris",
        "lat": 65.0606493285929,
        "lon": 179.1935119983472,
        "alt_km": 723.6831644520025,
        "timestamp": "2025-12-03T06:58:43.639000+00:00",
        "meta_object_name": "COSMOS 2251 DEB",
        "meta_object_id": "1993-036AVW",
        "meta_epoch": "2025-12-02T19:08:08.015136",
        "meta_mean_motion": 14.59062146,
        "meta_eccentricity": 0.0053771,
        "meta_inclination": 73.91,
        "meta_ra_of_asc_node": 141.7735,
        "meta_arg_of_pericenter": 277.5645,
        "meta_mean_anomaly": 81.9413,
        "meta_ephemeris_type": 0,
        "meta_classification_type": "U",
        "meta_norad_cat_id": 35980,
        "meta_element_set_no": 999,
        "meta_rev_at_epoch": 61341,
        "meta_bstar": 0.0020366,
        "meta_mean_motion_dot": 9.752e-05,
        "meta_mean_motion_ddot": 0,
        "tle_line1": "1 35980U 93036AVW 25336.79731499  .00009752  00000+0  20366-2 0  9995",
        "tle_line2": "2 35980  73.9100 141.7735 0053771 277.5645  81.9413 14.59062146613413"
      },
      "geometry": {
        "type": "Point",
        "coordinates": [
          179.1935119983472,
          65.0606493285929
        ]
      }
    },
    {
      "type": "Feature",
      "properties": {
        "norad_id": 35982,
        "name": "COSMOS 2251 DEB",
        "group": "cosmos-2251-debris",
        "lat": -52.22792004806597,
        "lon": -153.33751549143716,
        "alt_km": 733.9061340103399,
        "timestamp": "2025-12-03T06:58:43.639010+00:00",
        "meta_object_name": "COSMOS 2251 DEB",
        "meta_object_id": "1993-036AVY",
        "meta_epoch": "2025-12-02T08:34:16.837248",
        "meta_mean_motion": 14.62661331,
        "meta_eccentricity": 0.00640231,
        "meta_inclination": 74.0586,
        "meta_ra_of_asc_node": 6.8033,
        "meta_arg_of_pericenter": 76.2999,
        "meta_mean_anomaly": 284.5285,
        "meta_ephemeris_type": 0,
        "meta_classification_type": "U",
        "meta_norad_cat_id": 35982,
        "meta_element_set_no": 999,
        "meta_rev_at_epoch": 86014,
        "meta_bstar": 0.00060971917,
        "meta_mean_motion_dot": 3.165e-05,
        "meta_mean_motion_ddot": 0,
        "tle_line1": "1 35982U 93036AVY 25336.35713932  .00003165  00000+0  60972-3 0  9991",
        "tle_line2": "2 35982  74.0586   6.8033 0064023  76.2999 284.5285 14.62661331860142"
      },
      "geometry": {
        "type": "Point",
        "coordinates": [
          -153.33751549143716,
          -52.22792004806597
        ]
      }
    },
    {
      "type": "Feature",
      "properties": {
        "norad_id": 35987,
        "name": "COSMOS 2251 DEB",
        "group": "cosmos-2251-debris",
        "lat": 4.222702474892723,
        "lon": 163.0179296964641,
        "alt_km": 735.3135090662963,
        "timestamp": "2025-12-03T06:58:43.639020+00:00",
        "meta_object_name": "COSMOS 2251 DEB",
        "meta_object_id": "1993-036AWD",
        "meta_epoch": "2025-12-01T10:54:45.006048",
        "meta_mean_motion": 14.43015331,
        "meta_eccentricity": 0.00459843,
        "meta_inclination": 73.9994,
        "meta_ra_of_asc_node": 347.6475,
        "meta_arg_of_pericenter": 116.8368,
        "meta_mean_anomaly": 243.7501,
        "meta_ephemeris_type": 0,
        "meta_classification_type": "U",
        "meta_norad_cat_id": 35987,
        "meta_element_set_no": 999,
        "meta_rev_at_epoch": 60902,
        "meta_bstar": 0.00096989757,
        "meta_mean_motion_dot": 3.265e-05,
        "meta_mean_motion_ddot": 0,
        "tle_line1": "1 35987U 93036AWD 25335.45468757  .00003265  00000+0  96990-3 0  9998",
        "tle_line2": "2 35987  73.9994 347.6475 0045984 116.8368 243.7501 14.43015331609028"
      },
      "geometry": {
        "type": "Point",
        "coordinates": [
          163.0179296964641,
          4.222702474892723
        ]
      }
    },
    {
      "type": "Feature",
      "properties": {
        "norad_id": 35989,
        "name": "COSMOS 2251 DEB",
        "group": "cosmos-2251-debris",
        "lat": 59.49490978286153,
        "lon": -29.721803697481807,
        "alt_km": 749.9998979561979,
        "timestamp": "2025-12-03T06:58:43.639030+00:00",
        "meta_object_name": "COSMOS 2251 DEB",
        "meta_object_id": "1993-036AWF",
        "meta_epoch": "2025-11-27T07:00:06.233184",
        "meta_mean_motion": 14.37066498,
        "meta_eccentricity": 0.00214096,
        "meta_inclination": 74.0374,
        "meta_ra_of_asc_node": 312.2392,
        "meta_arg_of_pericenter": 38.1471,
        "meta_mean_anomaly": 322.1192,
        "meta_ephemeris_type": 0,
        "meta_classification_type": "U",
        "meta_norad_cat_id": 35989,
        "meta_element_set_no": 999,
        "meta_rev_at_epoch": 86957,
        "meta_bstar": 0.00024367588,
        "meta_mean_motion_dot": 6.99e-06,
        "meta_mean_motion_ddot": 0,
        "tle_line1": "1 35989U 93036AWF 25331.29173881  .00000699  00000+0  24368-3 0  9997",
        "tle_line2": "2 35989  74.0374 312.2392 0021409  38.1471 322.1192 14.37066498869576"
      },
      "geometry": {
        "type": "Point",
        "coordinates": [
          -29.721803697481807,
          59.49490978286153
        ]
      }
    },
    {
      "type": "Feature",
      "properties": {
        "norad_id": 35993,
        "name": "COSMOS 2251 DEB",
        "group": "cosmos-2251-debris",
        "lat": 60.459667128736676,
        "lon": 21.395473058878334,
        "alt_km": 680.2309872234619,
        "timestamp": "2025-12-03T06:58:43.639041+00:00",
        "meta_object_name": "COSMOS 2251 DEB",
        "meta_object_id": "1993-036AWK",
        "meta_epoch": "2025-11-27T19:35:01.348512",
        "meta_mean_motion": 14.65130544,
        "meta_eccentricity": 0.00298008,
        "meta_inclination": 74.0156,
        "meta_ra_of_asc_node": 1.5524,
        "meta_arg_of_pericenter": 195.1174,
        "meta_mean_anomaly": 164.9107,
        "meta_ephemeris_type": 0,
        "meta_classification_type": "U",
        "meta_norad_cat_id": 35993,
        "meta_element_set_no": 999,
        "meta_rev_at_epoch": 60224,
        "meta_bstar": 0.00071132597,
        "meta_mean_motion_dot": 3.818e-05,
        "meta_mean_motion_ddot": 0,
        "tle_line1": "1 35993U 93036AWK 25331.81598783  .00003818  00000+0  71133-3 0  9990",
        "tle_line2": "2 35993  74.0156   1.5524 0029800 195.1174 164.9107 14.65130544602243"
      },
      "geometry": {
        "type": "Point",
        "coordinates": [
          21.395473058878334,
          60.459667128736676
        ]
      }
    },
    {
      "type": "Feature",
      "properties": {
        "norad_id": 35996,
        "name": "COSMOS 2251 DEB",
        "group": "cosmos-2251-debris",
        "lat": 68.56058468584104,
        "lon": -103.97413916812192,
        "alt_km": 555.2234400883299,
        "timestamp": "2025-12-03T06:58:43.639051+00:00",
        "meta_object_name": "COSMOS 2251 DEB",
        "meta_object_id": "1993-036AWN",
        "meta_epoch": "2025-12-02T16:11:16.473408",
        "meta_mean_motion": 15.08726823,
        "meta_eccentricity": 0.0089413,
        "meta_inclination": 74.0129,
        "meta_ra_of_asc_node": 124.191,
        "meta_arg_of_pericenter": 217.4013,
        "meta_mean_anomaly": 142.0936,
        "meta_ephemeris_type": 0,
        "meta_classification_type": "U",
        "meta_norad_cat_id": 35996,
        "meta_element_set_no": 999,
        "meta_rev_at_epoch": 72174,
        "meta_bstar": 0.0010209,
        "meta_mean_motion_dot": 0.00017591,
        "meta_mean_motion_ddot": 0,
        "tle_line1": "1 35996U 93036AWN 25336.67449622  .00017591  00000+0  10209-2 0  9998",
        "tle_line2": "2 35996  74.0129 124.1910 0089413 217.4013 142.0936 15.08726823721746"
      },
      "geometry": {
        "type": "Point",
        "coordinates": [
          -103.97413916812192,
          68.56058468584104
        ]
      }
    },
    {
      "type": "Feature",
      "properties": {
        "norad_id": 35997,
        "name": "COSMOS 2251 DEB",
        "group": "cosmos-2251-debris",
        "lat": -3.512211701389195,
        "lon": -155.94169133292843,
        "alt_km": 721.8181133894641,
        "timestamp": "2025-12-03T06:58:43.639060+00:00",
        "meta_object_name": "COSMOS 2251 DEB",
        "meta_object_id": "1993-036AWP",
        "meta_epoch": "2025-12-02T07:50:00.553056",
        "meta_mean_motion": 14.51236016,
        "meta_eccentricity": 0.00159085,
        "meta_inclination": 74.0439,
        "meta_ra_of_asc_node": 206.8774,
        "meta_arg_of_pericenter": 283.0639,
        "meta_mean_anomaly": 76.8746,
        "meta_ephemeris_type": 0,
        "meta_classification_type": "U",
        "meta_norad_cat_id": 35997,
        "meta_element_set_no": 999,
        "meta_rev_at_epoch": 70733,
        "meta_bstar": 0.00076938672,
        "meta_mean_motion_dot": 3.037e-05,
        "meta_mean_motion_ddot": 0,
        "tle_line1": "1 35997U 93036AWP 25336.32639529  .00003037  00000+0  76939-3 0  9991",
        "tle_line2": "2 35997  74.0439 206.8774 0015908 283.0639  76.8746 14.51236016707337"
      },
      "geometry": {
        "type": "Point",
        "coordinates": [
          -155.94169133292843,
          -3.512211701389195
        ]
      }
    }
  ]
}